CCSDS_OEM_VERS = 2.0  
CREATION_DATE  = 2026-05-08T16:27:49
ORIGINATOR     = ESOC/OPS-GFA                            
 
 



META_START
OBJECT_NAME          = LISA                                    
OBJECT_ID            = -1000                                   
CENTER_NAME          = SUN                     
REF_FRAME            = EME2000 
TIME_SYSTEM          = TCB
START_TIME           = 2036-12-23T00:00:30.346418            
STOP_TIME            = 2047-09-07T22:06:25.047744            
INTERPOLATION        = HERMITE                                 
INTERPOLATION_DEGREE = 7                                       
META_STOP

2047-02-27T03:30:04.635848    -1.01001576834967375e+08    1.01900680764310941e+08    4.50270093393719867e+07   -2.20522492475591037e+01   -1.82775368095965121e+01   -7.71144479654834125e+00    3.94196056572244256e-06   -3.97723375857575166e-06   -1.75742635487685485e-06
2047-02-27T23:42:21.202433    -1.02595099609142900e+08    1.00560761051649243e+08    4.44614760512395725e+07   -2.17632821892055937e+01   -1.85649059253209856e+01   -7.83846269376677718e+00    4.00347939488212751e-06   -3.92427557871969169e-06   -1.73506128266271103e-06
2047-02-28T19:54:37.769018    -1.04167441876910642e+08    9.92000798619447500e+07    4.38867633784654662e+07   -2.14698709137637600e+01   -1.88483944396263787e+01   -7.96384117353887699e+00    4.06415896875773472e-06   -3.87053272348530906e-06   -1.71234892667336422e-06
2047-03-01T16:06:54.335603    -1.05718282619222179e+08    9.78189215261547416e+07    4.33029914827224985e+07   -2.11720768896962568e+01   -1.91279456876321596e+01   -8.08755514913331552e+00    4.12398766158717325e-06   -3.81601648154765375e-06   -1.68929406773842664e-06
2047-03-02T12:19:10.902187    -1.07247305337841153e+08    9.64175744756487310e+07    4.27102823416836783e+07   -2.08699624243443793e+01   -1.94035038306247927e+01   -8.20957988381435477e+00    4.18295403415314475e-06   -3.76073828134078730e-06   -1.66590154887028920e-06
2047-03-03T08:31:27.468771    -1.08754198102689177e+08    9.49963311759546399e+07    4.21087597207733765e+07   -2.05635906501353389e+01   -1.96750138662762062e+01   -8.32989099538981215e+00    4.24104683931631334e-06   -3.70470969197882998e-06   -1.64217627571564685e-06
2047-03-04T04:43:44.035356    -1.10238653595464170e+08    9.35554880585945249e+07    4.14985491440577358e+07   -2.02530255105249140e+01   -1.99424216388123199e+01   -8.44846446074000923e+00    4.29825502375512564e-06   -3.64794242095908607e-06   -1.61812321557901928e-06
2047-03-05T00:56:00.601941    -1.11700369154522777e+08    9.20953454531414211e+07    4.08797778652422577e+07   -1.99383317459502862e+01   -2.02056738488987229e+01   -8.56527662022429048e+00    4.35456772594750918e-06   -3.59044830868132903e-06   -1.59374739503344336e-06
2047-03-05T21:08:17.168526    -1.13139046826019078e+08    9.06162075216287971e+07    4.02525748397448063e+07   -1.96195748800678054e+01   -2.04647180630105190e+01   -8.68030418186175723e+00    4.40997427036361448e-06   -3.53223931975650571e-06   -1.56905389610624354e-06
2047-03-06T17:20:33.735110    -1.14554393426290900e+08    8.91183821974440217e+07    3.96170706988117248e+07   -1.92968212065505753e+01   -2.07195027220533916e+01   -8.79352422518284271e+00    4.46446415786039795e-06   -3.47332753108741748e-06   -1.54404785103275815e-06
2047-03-07T13:32:50.301694    -1.15946120620485723e+08    8.76021811308373958e+07    3.89733977266455814e+07   -1.89701377767205521e+01   -2.09699771490029434e+01   -8.90491420464833183e+00    4.51802705235395481e-06   -3.41372511680829398e-06   -1.51873443561561935e-06
2047-03-08T09:45:06.868279    -1.17313945022418424e+08    8.60679196431782246e+07    3.83216898415120244e+07   -1.86395923882900902e+01   -2.12160915553293421e+01   -9.01445195253246290e+00    4.57065276366137432e-06   -3.35344432996564183e-06   -1.49311886113836523e-06
2047-03-09T05:57:23.434864    -1.18657588320651710e+08    8.45159166920893490e+07    3.76620825817943066e+07   -1.83052535754876011e+01   -2.14577970459742922e+01   -9.12211568116673632e+00    4.62233122654483379e-06   -3.29249748097377152e-06   -1.46720636484766347e-06
2047-03-10T02:14:54.723258    -1.19982431588293090e+08    8.29396666832671762e+07    3.69918087633985579e+07   -1.79657198379690044e+01   -2.16960624289159831e+01   -9.22833748784396946e+00    4.67327037758301216e-06   -3.23062943823121193e-06   -1.44088839724269017e-06
2047-03-10T22:32:26.011650    -1.21282336440207958e+08    8.13461767448575199e+07    3.63138457889636531e+07   -1.76225004813312900e+01   -2.19297845865308894e+01   -9.33262615760400038e+00    4.72323462368734168e-06   -3.16811509704823876e-06   -1.41428181148897109e-06
2047-03-11T18:49:57.300045    -1.22557036278468341e+08    7.97357804807332009e+07    3.56283356431719512e+07   -1.72756670676789597e+01   -2.21589167789080115e+01   -9.43496080814691496e+00    4.77221456746197667e-06   -3.10496741977680036e-06   -1.38739213311437930e-06
2047-03-12T15:07:28.588439    -1.23806269696357489e+08    7.81088148641615361e+07    3.49354218163674176e+07   -1.69252918404817336e+01   -2.23834132158163861e+01   -9.53532096206259183e+00    4.82020095621931684e-06   -3.04119944624756073e-06   -1.36022492250095572e-06
2047-03-13T11:24:59.876831    -1.25029780580784768e+08    7.64656201780196428e+07    3.42352492796075195e+07   -1.65714477131187685e+01   -2.26032290627222245e+01   -9.63368654953952586e+00    4.86718470537903333e-06   -2.97682430308930712e-06   -1.33278577913154776e-06
2047-03-14T07:42:31.165225    -1.26227318188497826e+08    7.48065399497939795e+07    3.35279644572194256e+07   -1.62142082558786456e+01   -2.28183204473985022e+01   -9.73003791134410001e+00    4.91315691742931878e-06   -2.91185521069727240e-06   -1.30508034477849365e-06
2047-03-15T04:00:02.453619    -1.27398637201614544e+08    7.31319208823816776e+07    3.28137151973510534e+07   -1.58536476817361098e+01   -2.30286444669576831e+01   -9.82435580199417302e+00    4.95810889645568434e-06   -2.84630548785194771e-06   -1.27711430563495107e-06
2047-03-16T00:17:33.742012    -1.28543497767982781e+08    7.14421127817245126e+07    3.20926507410131991e+07   -1.54898408312296674e+01   -2.32341591951359554e+01   -9.91662139304967205e+00    5.00203215822837332e-06   -2.78018855398310282e-06   -1.24889339338664352e-06
2047-03-16T20:35:05.030406    -1.29661665531876132e+08    6.97374684823060632e+07    3.13649216901089624e+07   -1.51228631567639376e+01   -2.34348236896570938e+01   -1.00068162764429065e+01    5.04491843586546759e-06   -2.71351792908925659e-06   -1.22042338522845242e-06
2047-03-17T16:52:36.318800    -1.30752911660533667e+08    6.80183437715431303e+07    3.06306799749467224e+07   -1.47527907066608162e+01   -2.36305979995043032e+01   -1.00949224677713367e+01    5.08675968104270307e-06   -2.64630723129490601e-06   -1.19171010281811246e-06
2047-03-18T13:10:07.607193    -1.31817012872051969e+08    6.62850973141020238e+07    2.98900788217328973e+07   -1.43797001092834567e+01   -2.38214431719282125e+01   -1.01809224094754533e+01    5.12754806079183678e-06   -2.57857017207064634e-06   -1.16275941017812028e-06
2047-03-19T09:27:38.895587    -1.32853751470137432e+08    6.45380905771705806e+07    2.91432727205407061e+07   -1.40036685575570239e+01   -2.40073212590193208e+01   -1.02647989738245489e+01    5.16727594984688933e-06   -2.51032054909340892e-06   -1.13357721053566698e-06
2047-03-20T05:45:10.183981    -1.33862915391227067e+08    6.27776877577167228e+07    2.83904173942511715e+07   -1.36247737942102365e+01   -2.41881953236730851e+01   -1.03465354656330160e+01    5.20593591855630631e-06   -2.44157223675503218e-06   -1.10416944210447077e-06
2047-03-21T02:02:41.472374    -1.34844298269485623e+08    6.10042557127642483e+07    2.76316697689626366e+07   -1.32430940980617571e+01   -2.43640294447759302e+01   -1.04261156246299400e+01    5.24352071636183049e-06   -2.37233917431856162e-06   -1.07454207280787206e-06
2047-03-21T22:20:12.760768    -1.35797699525187939e+08    5.92181638937170506e+07    2.68671879463649690e+07   -1.28587082716752708e+01   -2.45347887214404565e+01   -1.05035236274046824e+01    5.28002325086738176e-06   -2.30263535174550525e-06   -1.04470109395399222e-06
2047-03-22T18:37:44.049162    -1.36722924481993318e+08    5.74197842857617587e+07    2.60971311785747223e+07   -1.24716956307074689e+01   -2.47004392761179794e+01   -1.05787440888511348e+01    5.31543656238064330e-06   -2.23247479310507968e-06   -1.01465251282278822e-06
2047-03-23T15:02:11.052723    -1.37624806475736052e+08    5.55991560535084009e+07    2.53172316417926103e+07   -1.20799119611273849e+01   -2.48618469063819596e+01   -1.06521712630442611e+01    5.34994656634324057e-06   -2.16146886055827485e-06   -9.84229789224645838e-07
2047-03-24T11:26:38.056282    -1.38497813182756782e+08    5.37668617065663710e+07    2.45320199132457674e+07   -1.16856338549636760e+01   -2.50180219474820795e+01   -1.07233560750290078e+01    5.38334183149624315e-06   -2.09002989178171443e-06   -9.53609490317988427e-07
2047-03-25T07:51:05.059842    -1.39341764390694380e+08    5.19232868184638619e+07    2.37416612584240027e+07   -1.12889434368588741e+01   -2.51689331213600020e+01   -1.07922842394025942e+01    5.41561617144025869e-06   -2.01817248127515953e-06   -9.22797877338591686e-07
2047-03-26T04:15:32.063403    -1.40156485872595578e+08    5.00688192244486958e+07    2.29463219762231223e+07   -1.08899232803278636e+01   -2.53145502239972373e+01   -1.08589419315979256e+01    5.44676355760741996e-06   -1.94591127414645528e-06   -8.91801234865218223e-07
2047-03-27T00:39:59.066963    -1.40941809475444436e+08    4.82038489405201524e+07    2.21461693647008315e+07   -1.04886563951971770e+01   -2.54548441293066858e+01   -1.09233157896824515e+01    5.47677814462494953e-06   -1.87326097055277138e-06   -8.60625872973298989e-07
